{
    "links": {
        "self": "http://www.neowsapp.com/rest/v1/neo/3771024?api_key=iIulBulltgU6a56xZRHN4H3l9WmuAYTsLGpBGhQ2"
    },
    "id": "3771024",
    "neo_reference_id": "3771024",
    "name": "(2017 EF3)",
    "designation": "2017 EF3",
    "nasa_jpl_url": "http://ssd.jpl.nasa.gov/sbdb.cgi?sstr=3771024",
    "absolute_magnitude_h": 24.3,
    "estimated_diameter": {
        "kilometers": {
            "estimated_diameter_min": 0.0366906138,
            "estimated_diameter_max": 0.0820427065
        },
        "meters": {
            "estimated_diameter_min": 36.6906137531,
            "estimated_diameter_max": 82.0427064882
        },
        "miles": {
            "estimated_diameter_min": 0.0227984834,
            "estimated_diameter_max": 0.0509789586
        },
        "feet": {
            "estimated_diameter_min": 120.3760332259,
            "estimated_diameter_max": 269.1689931548
        }
    },
    "is_potentially_hazardous_asteroid": false,
    "close_approach_data": [
        {
            "close_approach_date": "1979-03-24",
            "close_approach_date_full": "1979-Mar-24 02:38",
            "epoch_date_close_approach": 291091080000,
            "relative_velocity": {
                "kilometers_per_second": "29.5648157813",
                "kilometers_per_hour": "106433.3368126058",
                "miles_per_hour": "66133.5364211439"
            },
            "miss_distance": {
                "astronomical": "0.3999562392",
                "lunar": "155.5829770488",
                "kilometers": "59832601.477530504",
                "miles": "37178254.5795647952"
            },
            "orbiting_body": "Earth"
        },
        {
            "close_approach_date": "2016-12-28",
            "close_approach_date_full": "2016-Dec-28 15:24",
            "epoch_date_close_approach": 1482938640000,
            "relative_velocity": {
                "kilometers_per_second": "12.4324616658",
                "kilometers_per_hour": "44756.8619968692",
                "miles_per_hour": "27810.1735002213"
            },
            "miss_distance": {
                "astronomical": "0.058271445",
                "lunar": "22.667592105",
                "kilometers": "8717284.05382215",
                "miles": "5416669.13675967"
            },
            "orbiting_body": "Venus"
        },
        {
            "close_approach_date": "2017-03-02",
            "close_approach_date_full": "2017-Mar-02 01:27",
            "epoch_date_close_approach": 1488418020000,
            "relative_velocity": {
                "kilometers_per_second": "17.0667547581",
                "kilometers_per_hour": "61440.3171291042",
                "miles_per_hour": "38176.6237183592"
            },
            "miss_distance": {
                "astronomical": "0.0475278065",
                "lunar": "18.4883167285",
                "kilometers": "7110058.618172155",
                "miles": "4417985.560619539"
            },
            "orbiting_body": "Earth"
        }
    ],
    "orbital_data": {
        "orbit_id": "3",
        "orbit_determination_date": "2017-04-06 08:19:37",
        "first_observation_date": "2017-03-07",
        "last_observation_date": "2017-03-10",
        "data_arc_in_days": 3,
        "observations_used": 39,
        "orbit_uncertainty": "8",
        "minimum_orbit_intersection": ".0427871",
        "jupiter_tisserand_invariant": "4.052",
        "epoch_osculation": "2457820.5",
        "eccentricity": ".6135888526074992",
        "semi_major_axis": "1.643739487891591",
        "inclination": "2.723458323780136",
        "ascending_node_longitude": "51.11035639227626",
        "orbital_period": "769.7468308092984",
        "perihelion_distance": ".6351592615305514",
        "perihelion_argument": "24.56188144930167",
        "aphelion_distance": "2.652319714252631",
        "perihelion_time": "2457765.681204031713",
        "mean_anomaly": "25.63799649273584",
        "mean_motion": ".4676862386318658",
        "equinox": "J2000",
        "orbit_class": {
            "orbit_class_type": "APO",
            "orbit_class_description": "Near-Earth asteroid orbits which cross the Earth’s orbit similar to that of 1862 Apollo",
            "orbit_class_range": "a (semi-major axis) > 1.0 AU; q (perihelion) < 1.017 AU"
        }
    },
    "is_sentry_object": false
}